H1 CPF  2  DGF 2024 03 13 11 073 01 lares2     NONE      
H2  2208001 5988    53105 2024 03 13 00 00 00 2024 03 20 00 00 00    60 1 1  0 0 0 1
H5  0.1740
H9
10 0 60387  57600.000000  0       -235132.898       4264838.850     -11509899.719
10 0 60387  57660.000000  0       -553154.071       4315705.112     -11480166.826
10 0 60387  57720.000000  0       -870314.515       4366091.566     -11441537.430
10 0 60387  57780.000000  0      -1186379.149       4415951.677     -11394041.661
10 0 60387  57840.000000  0      -1501114.144       4465237.242     -11337716.479
10 0 60387  57900.000000  0      -1814287.104       4513898.441     -11272605.650
10 0 60387  57960.000000  0      -2125667.260       4561883.883     -11198759.706
10 0 60387  58020.000000  0      -2435025.648       4609140.664     -11116235.915
10 0 60387  58080.000000  0      -2742135.294       4655614.420     -11025098.230
10 0 60387  58140.000000  0      -3046771.400       4701249.386     -10925417.247
10 0 60387  58200.000000  0      -3348711.514       4745988.460     -10817270.145
10 0 60387  58260.000000  0      -3647735.713       4789773.265     -10700740.634
10 0 60387  58320.000000  0      -3943626.777       4832544.217     -10575918.888
10 0 60387  58380.000000  0      -4236170.358       4874240.594     -10442901.479
10 0 60387  58440.000000  0      -4525155.152       4914800.609     -10301791.303
10 0 60387  58500.000000  0      -4810373.064       4954161.481     -10152697.503
10 0 60387  58560.000000  0      -5091619.372       4992259.514      -9995735.390
10 0 60387  58620.000000  0      -5368692.889       5029030.174      -9831026.350
10 0 60387  58680.000000  0      -5641396.117       5064408.172      -9658697.756
10 0 60387  58740.000000  0      -5909535.406       5098327.543      -9478882.876
10 0 60387  58800.000000  0      -6172921.100       5130721.733      -9291720.764
10 0 60387  58860.000000  0      -6431367.686       5161523.685      -9097356.162
10 0 60387  58920.000000  0      -6684693.939       5190665.925      -8895939.389
10 0 60387  58980.000000  0      -6932723.060       5218080.655      -8687626.227
10 0 60387  59040.000000  0      -7175282.811       5243699.841      -8472577.802
10 0 60387  59100.000000  0      -7412205.650       5267455.309      -8250960.466
10 0 60387  59160.000000  0      -7643328.854       5289278.833      -8022945.665
10 0 60387  59220.000000  0      -7868494.647       5309102.237      -7788709.817
10 0 60387  59280.000000  0      -8087550.316       5326857.486      -7548434.170
10 0 60387  59340.000000  0      -8300348.325       5342476.785      -7302304.670
10 0 60387  59400.000000  0      -8506746.428       5355892.679      -7050511.816
10 0 60387  59460.000000  0      -8706607.771       5367038.145      -6793250.520
10 0 60387  59520.000000  0      -8899800.997       5375846.698      -6530719.950
10 0 60387  59580.000000  0      -9086200.334       5382252.490      -6263123.387
10 0 60387  59640.000000  0      -9265685.694       5386190.405      -5990668.064
10 0 60387  59700.000000  0      -9438142.754       5387596.164      -5713565.009
10 0 60387  59760.000000  0      -9603463.036       5386406.426      -5432028.884
10 0 60387  59820.000000  0      -9761543.986       5382558.882      -5146277.818
10 0 60387  59880.000000  0      -9912289.041       5375992.365      -4856533.243
10 0 60387  59940.000000  0     -10055607.696       5366646.941      -4563019.720
10 0 60387  60000.000000  0     -10191415.560       5354464.014      -4265964.771
10 0 60387  60060.000000  0     -10319634.414       5339386.423      -3965598.697
10 0 60387  60120.000000  0     -10440192.257       5321358.543      -3662154.407
10 0 60387  60180.000000  0     -10553023.352       5300326.378      -3355867.231
10 0 60387  60240.000000  0     -10658068.258       5276237.662      -3046974.747
10 0 60387  60300.000000  0     -10755273.867       5249041.954      -2735716.587
10 0 60387  60360.000000  0     -10844593.428       5218690.730      -2422334.260
10 0 60387  60420.000000  0     -10925986.567       5185137.480      -2107070.959
10 0 60387  60480.000000  0     -10999419.303       5148337.797      -1790171.374
10 0 60387  60540.000000  0     -11064864.057       5108249.471      -1471881.503
10 0 60387  60600.000000  0     -11122299.655       5064832.573      -1152448.459
10 0 60387  60660.000000  0     -11171711.327       5018049.546       -832120.278
10 0 60387  60720.000000  0     -11213090.697       4967865.288       -511145.726
10 0 60387  60780.000000  0     -11246435.771       4914247.235       -189774.106
10 0 60387  60840.000000  0     -11271750.919       4857165.445        131744.939
10 0 60387  60900.000000  0     -11289046.845       4796592.674        453161.618
10 0 60387  60960.000000  0     -11298340.565       4732504.451        774226.189
10 0 60387  61020.000000  0     -11299655.364       4664879.157       1094689.153
10 0 60387  61080.000000  0     -11293020.758       4593698.091       1414301.449
10 0 60387  61140.000000  0     -11278472.444       4518945.545       1732814.649
10 0 60387  61200.000000  0     -11256052.254       4440608.863       2049981.155
10 0 60387  61260.000000  0     -11225808.089       4358678.510       2365554.386
10 0 60387  61320.000000  0     -11187793.864       4273148.129       2679288.978
10 0 60387  61380.000000  0     -11142069.435       4184014.600       2990940.972
10 0 60387  61440.000000  0     -11088700.528       4091278.093       3300268.007
10 0 60387  61500.000000  0     -11027758.660       3994942.122       3607029.508
10 0 60387  61560.000000  0     -10959321.055       3895013.586       3910986.873
10 0 60387  61620.000000  0     -10883470.560       3791502.821       4211903.666
10 0 60387  61680.000000  0     -10800295.548       3684423.636       4509545.795
10 0 60387  61740.000000  0     -10709889.822       3573793.354       4803681.698
10 0 60387  61800.000000  0     -10612352.514       3459632.840       5094082.525
10 0 60387  61860.000000  0     -10507787.978       3341966.539       5380522.317
10 0 60387  61920.000000  0     -10396305.682       3220822.496       5662778.180
10 0 60387  61980.000000  0     -10278020.087       3096232.382       5940630.463
10 0 60387  62040.000000  0     -10153050.537       2968231.514       6213862.928
10 0 60387  62100.000000  0     -10021521.128       2836858.866       6482262.918
10 0 60387  62160.000000  0      -9883560.589       2702157.086       6745621.524
10 0 60387  62220.000000  0      -9739302.146       2564172.498       7003733.750
10 0 60387  62280.000000  0      -9588883.392       2422955.110       7256398.670
10 0 60387  62340.000000  0      -9432446.149       2278558.610       7503419.586
10 0 60387  62400.000000  0      -9270136.328       2131040.364       7744604.183
10 0 60387  62460.000000  0      -9102103.787       1980461.406       7979764.676
10 0 60387  62520.000000  0      -8928502.183       1826886.428       8208717.958
10 0 60387  62580.000000  0      -8749488.824       1670383.758       8431285.744
10 0 60387  62640.000000  0      -8565224.519       1511025.347       8647294.709
10 0 60387  62700.000000  0      -8375873.422       1348886.737       8856576.620
10 0 60387  62760.000000  0      -8181602.877       1184047.039       9058968.472
10 0 60387  62820.000000  0      -7982583.262       1016588.895       9254312.611
10 0 60387  62880.000000  0      -7778987.823        846598.442       9442456.858
10 0 60387  62940.000000  0      -7570992.519        674165.275       9623254.629
10 0 60387  63000.000000  0      -7358775.854        499382.398       9796565.046
10 0 60387  63060.000000  0      -7142518.711        322346.178       9962253.049
10 0 60387  63120.000000  0      -6922404.191        143156.288      10120189.497
10 0 60387  63180.000000  0      -6698617.440        -38084.343      10270251.277
10 0 60387  63240.000000  0      -6471345.483       -221269.597      10412321.389
10 0 60387  63300.000000  0      -6240777.053       -406290.229      10546289.045
10 0 60387  63360.000000  0      -6007102.423       -593033.932      10672049.751
10 0 60387  63420.000000  0      -5770513.236       -781385.418      10789505.390
10 0 60387  63480.000000  0      -5531202.329       -971226.483      10898564.299
10 0 60387  63540.000000  0      -5289363.570      -1162436.094      10999141.338
10 0 60387  63600.000000  0      -5045191.677      -1354890.471      11091157.959
10 0 60387  63660.000000  0      -4798882.058      -1548463.171      11174542.266
10 0 60387  63720.000000  0      -4550630.631      -1743025.181      11249229.071
10 0 60387  63780.000000  0      -4300633.659      -1938445.010      11315159.946
10 0 60387  63840.000000  0      -4049087.577      -2134588.787      11372283.268
10 0 60387  63900.000000  0      -3796188.829      -2331320.361      11420554.260
10 0 60387  63960.000000  0      -3542133.692      -2528501.405      11459935.027
10 0 60387  64020.000000  0      -3287118.113      -2725991.523      11490394.586
10 0 60387  64080.000000  0      -3031337.547      -2923648.357      11511908.889
10 0 60387  64140.000000  0      -2774986.785      -3121327.705      11524460.844
10 0 60387  64200.000000  0      -2518259.797      -3318883.632      11528040.331
10 0 60387  64260.000000  0      -2261349.567      -3516168.588      11522644.209
10 0 60387  64320.000000  0      -2004447.936      -3713033.535      11508276.317
10 0 60387  64380.000000  0      -1747745.444      -3909328.062      11484947.477
10 0 60387  64440.000000  0      -1491431.173      -4104900.521      11452675.484
10 0 60387  64500.000000  0      -1235692.594      -4299598.144      11411485.094
10 0 60387  64560.000000  0       -980715.417      -4493267.186      11361408.007
10 0 60387  64620.000000  0       -726683.442      -4685753.047      11302482.841
10 0 60387  64680.000000  0       -473778.412      -4876900.413      11234755.107
10 0 60387  64740.000000  0       -222179.868      -5066553.393      11158277.172
99